{
    "links": {
        "self": "http://www.neowsapp.com/rest/v1/neo/3465535?api_key=iIulBulltgU6a56xZRHN4H3l9WmuAYTsLGpBGhQ2"
    },
    "id": "3465535",
    "neo_reference_id": "3465535",
    "name": "(2009 PD)",
    "designation": "2009 PD",
    "nasa_jpl_url": "http://ssd.jpl.nasa.gov/sbdb.cgi?sstr=3465535",
    "absolute_magnitude_h": 24.2,
    "estimated_diameter": {
        "kilometers": {
            "estimated_diameter_min": 0.0384197891,
            "estimated_diameter_max": 0.0859092601
        },
        "meters": {
            "estimated_diameter_min": 38.4197891064,
            "estimated_diameter_max": 85.9092601232
        },
        "miles": {
            "estimated_diameter_min": 0.0238729428,
            "estimated_diameter_max": 0.0533815229
        },
        "feet": {
            "estimated_diameter_min": 126.0491808919,
            "estimated_diameter_max": 281.8545369825
        }
    },
    "is_potentially_hazardous_asteroid": false,
    "close_approach_data": [
        {
            "close_approach_date": "2009-07-07",
            "close_approach_date_full": "2009-Jul-07 01:43",
            "epoch_date_close_approach": 1246930980000,
            "relative_velocity": {
                "kilometers_per_second": "2.9865511051",
                "kilometers_per_hour": "10751.5839784878",
                "miles_per_hour": "6680.6161670776"
            },
            "miss_distance": {
                "astronomical": "0.0361510348",
                "lunar": "14.0627525372",
                "kilometers": "5408117.804375876",
                "miles": "3360448.5775680488"
            },
            "orbiting_body": "Earth"
        }
    ],
    "orbital_data": {
        "orbit_id": "8",
        "orbit_determination_date": "2017-04-06 09:00:18",
        "first_observation_date": "2009-08-01",
        "last_observation_date": "2009-08-10",
        "data_arc_in_days": 9,
        "observations_used": 14,
        "orbit_uncertainty": "8",
        "minimum_orbit_intersection": ".0361377",
        "jupiter_tisserand_invariant": "5.081",
        "epoch_osculation": "2455047.5",
        "eccentricity": ".1699828049709595",
        "semi_major_axis": "1.265723709724837",
        "inclination": "3.905619738917562",
        "ascending_node_longitude": "113.2592668556954",
        "orbital_period": "520.1238876869626",
        "perihelion_distance": "1.050572443227561",
        "perihelion_argument": "165.9058150038849",
        "aphelion_distance": "1.480874976222114",
        "perihelion_time": "2455013.559871301534",
        "mean_anomaly": "23.49141545062328",
        "mean_motion": ".6921427923661653",
        "equinox": "J2000",
        "orbit_class": {
            "orbit_class_type": "AMO",
            "orbit_class_description": "Near-Earth asteroid orbits similar to that of 1221 Amor",
            "orbit_class_range": "1.017 AU < q (perihelion) < 1.3 AU"
        }
    },
    "is_sentry_object": false
}